      2.10          N: GNSS NAV DATA                        RINEX VERSION / TYPE
fic2rin                                 07/07/2018 00:13:37 PGM / RUN BY / DATE
                                                            END OF HEADER
19 18  7  6 22  0  0.0-4.225596785545e-04 3.183231456205e-12 0.000000000000e+00
    9.400000000000e+01-2.106250000000e+01 3.963379376374e-09 1.921236348486e+00
   -1.186504960060e-06 9.894300485030e-03 8.728355169296e-06 5.153724720001e+03
    5.112000000000e+05-4.284083843231e-08 1.951440110639e+00-2.421438694000e-07
    9.803374336634e-01 2.231875000000e+02 1.225343948745e+00-7.747108412447e-09
    1.746501320219e-10 1.000000000000e+00 2.008000000000e+03 0.000000000000e+00
    2.400000000000e+00 0.000000000000e+00-1.536682248116e-08 9.400000000000e+01
    5.040060000000e+05 4.000000000000e+00
26 18  7  6 22  0  0.0-9.219488129020e-05 1.216449163621e-11 0.000000000000e+00
    8.300000000000e+01-2.037500000000e+01 4.694838416008e-09 9.594532467246e-01
   -1.041218638420e-06 2.785730408505e-03 5.483627319336e-06 5.153683296204e+03
    5.112000000000e+05 2.607703208923e-08 7.872758070488e-01 9.126961231232e-08
    9.554662434385e-01 2.708437500000e+02 1.143109631104e-01-8.334275727466e-09
   -1.975082270104e-10 1.000000000000e+00 2.008000000000e+03 0.000000000000e+00
    2.400000000000e+00 0.000000000000e+00 7.450580596924e-09 8.300000000000e+01
    5.040060000000e+05 4.000000000000e+00
30 18  7  6 22  0  0.0 5.378248170018e-05-4.661160346586e-12 0.000000000000e+00
    9.600000000000e+01 6.475000000000e+01 4.919133473083e-09 2.579870002192e+00
    3.330409526825e-06 3.565625636838e-03 6.239861249924e-06 5.153720142365e+03
    5.112000000000e+05-6.705522537231e-08-1.898691619327e-01 5.587935447693e-09
    9.440394810222e-01 2.510937500000e+02-3.034799455327e+00-8.318560787161e-09
    5.250218692682e-11 1.000000000000e+00 2.008000000000e+03 0.000000000000e+00
    2.400000000000e+00 0.000000000000e+00 3.725290298462e-09 9.600000000000e+01
    5.040060000000e+05 4.000000000000e+00
18 18  7  6 22  0  0.0 3.045378252864e-05 4.547473508865e-12 0.000000000000e+00
    1.080000000000e+02 1.906250000000e+00 4.950920511426e-09 2.953569091551e+00
   -1.862645149231e-08 1.475829351693e-02 6.597489118576e-06 5.153643562317e+03
    5.112000000000e+05 1.788139343262e-07 2.858524782951e+00-2.719461917877e-07
    9.504101615638e-01 2.435000000000e+02 1.318879187126e+00-8.104266146643e-09
    3.078699668770e-10 1.000000000000e+00 2.008000000000e+03 0.000000000000e+00
    3.400000000000e+00 0.000000000000e+00-6.984919309616e-09 1.080000000000e+02
    5.040060000000e+05 4.000000000000e+00
31 18  7  6 22  0  0.0 1.095491461456e-04-2.614797267597e-12 0.000000000000e+00
    9.500000000000e+01 6.762500000000e+01 4.554475426468e-09 2.354946236323e+00
    3.529712557793e-06 8.754941751249e-03 6.385147571564e-06 5.153689537048e+03
    5.112000000000e+05-3.911554813385e-08-2.101924573024e-01 4.656612873077e-08
    9.630900186450e-01 2.605312500000e+02-1.253928250345e-01-8.119623929214e-09
    3.428714248282e-11 1.000000000000e+00 2.008000000000e+03 0.000000000000e+00
    2.400000000000e+00 0.000000000000e+00-1.350417733192e-08 9.500000000000e+01
    5.040060000000e+05 4.000000000000e+00
20 18  7  6 22  0  0.0 5.119182169437e-04 6.821210263297e-13 0.000000000000e+00
    8.200000000000e+01-4.865625000000e+01 5.607376426879e-09 3.098884700095e+00
   -2.421438694000e-06 3.973269602284e-03 6.379559636116e-06 5.153665571213e+03
    5.112000000000e+05 6.519258022308e-08-2.445028198061e+00 1.620501279831e-07
    9.286544879927e-01 2.386875000000e+02 2.046720009029e+00-8.586071930074e-09
   -1.689356082747e-10 1.000000000000e+00 2.008000000000e+03 0.000000000000e+00
    2.400000000000e+00 0.000000000000e+00-8.381903171539e-09 8.200000000000e+01
    5.040060000000e+05 4.000000000000e+00
18 18  7  6 21 59 44.0 3.045797348022e-05 4.661160346586e-12 0.000000000000e+00
    4.000000000000e+00 1.906250000000e+00 4.950920511426e-09 2.951235440242e+00
   -1.862645149231e-08 1.475829095580e-02 6.597489118576e-06 5.153643569946e+03
    5.111840000000e+05 1.788139343262e-07 2.858524899985e+00-2.719461917877e-07
    9.504101586380e-01 2.435000000000e+02 1.318879007187e+00-8.104266146643e-09
    3.078699668770e-10 1.000000000000e+00 2.008000000000e+03 0.000000000000e+00
    2.400000000000e+00 0.000000000000e+00-6.984919309616e-09 4.000000000000e+00
    5.046960000000e+05 4.000000000000e+00
 7 18  7  6 21 59 44.0 1.632766798139e-04-6.366462912410e-12 0.000000000000e+00
    4.000000000000e+00 6.703125000000e+01 4.560904265684e-09 2.536403584190e+00
    3.341585397720e-06 1.187316828873e-02 6.891787052155e-06 5.153654642105e+03
    5.111840000000e+05-1.322478055954e-07-2.228570166493e-01-1.732259988785e-07
    9.584442165344e-01 2.444687500000e+02-2.517729671901e+00-8.029620180196e-09
    1.053615315878e-10 1.000000000000e+00 2.008000000000e+03 0.000000000000e+00
    2.400000000000e+00 0.000000000000e+00-1.117587089539e-08 4.000000000000e+00
    5.052060000000e+05 4.000000000000e+00
 4 18  7  6 22  0  0.0 7.650861516595e-05 3.524291969370e-12 0.000000000000e+00
    2.200000000000e+01-1.925000000000e+01 5.468442068276e-09 3.235451827384e-01
   -1.043081283569e-06 9.810473420657e-03 6.109476089478e-06 5.153709445953e+03
    5.112000000000e+05-9.313225746155e-08 8.350689500994e-01 1.676380634308e-07
    9.787542242192e-01 2.727187500000e+02 9.331460195401e-01-8.183555163635e-09
   -2.285809498855e-10 1.000000000000e+00 2.008000000000e+03 0.000000000000e+00
    3.400000000000e+00 6.300000000000e+01-1.955777406693e-08 2.200000000000e+01
    5.065860000000e+05 4.000000000000e+00
 7 18  7  6 23 59 44.0 1.632310450077e-04-6.366462912410e-12 0.000000000000e+00
    5.000000000000e+00 6.928125000000e+01 4.555546899671e-09-2.696588169207e+00
    3.442168235779e-06 1.187287084758e-02 6.856396794319e-06 5.153655178070e+03
    5.183840000000e+05-7.450580596924e-09-2.229148984660e-01-2.011656761169e-07
    9.584450328427e-01 2.450937500000e+02-2.517730480895e+00-8.038549123551e-09
    1.425059359442e-10 1.000000000000e+00 2.008000000000e+03 0.000000000000e+00
    2.400000000000e+00 0.000000000000e+00-1.117587089539e-08 5.000000000000e+00
    5.112060000000e+05 4.000000000000e+00
18 18  7  6 23 59 44.0 3.049103543162e-05 4.661160346586e-12 0.000000000000e+00
    5.000000000000e+00 6.218750000000e+00 4.964135347591e-09-2.281786099630e+00
    2.775341272354e-07 1.475934858900e-02 6.092712283134e-06 5.153641366959e+03
    5.183840000000e+05 2.197921276093e-07 2.858465403106e+00 9.313225746155e-09
    9.504132688018e-01 2.515000000000e+02 1.318918829280e+00-8.112480774530e-09
    5.153786104449e-10 1.000000000000e+00 2.008000000000e+03 0.000000000000e+00
    2.400000000000e+00 0.000000000000e+00-6.984919309616e-09 5.000000000000e+00
    5.112060000000e+05 4.000000000000e+00
 1 18  7  7  0  0  0.0-6.323028355837e-05-3.751665644813e-12 0.000000000000e+00
    5.000000000000e+01-2.250000000000e+00 4.522331230391e-09-2.025518921850e+00
   -3.129243850708e-07 7.976146298461e-03 6.632879376411e-06 5.153665185928e+03
    5.184000000000e+05 1.117587089539e-07 2.906475398892e+00-9.685754776001e-08
    9.720361957235e-01 2.556875000000e+02 6.545205819923e-01-8.027477233791e-09
    4.878774649119e-10 1.000000000000e+00 2.008000000000e+03 0.000000000000e+00
    2.400000000000e+00 0.000000000000e+00 5.587935447693e-09 5.000000000000e+01
    5.112060000000e+05 4.000000000000e+00
 2 18  7  7  0  0  0.0 6.511434912682e-05-1.080024958355e-11 0.000000000000e+00
    1.020000000000e+02 7.000000000000e+00 4.883417699663e-09-1.699274930284e+00
    7.022172212601e-07 1.790958817583e-02 6.357207894325e-06 5.153770654678e+03
    5.184000000000e+05 2.849847078323e-07 2.844528374207e+00 2.160668373108e-07
    9.510859360897e-01 2.471250000000e+02-1.847044300100e+00-8.112123616796e-09
    4.296607542379e-10 1.000000000000e+00 2.008000000000e+03 0.000000000000e+00
    3.400000000000e+00 0.000000000000e+00-2.048909664154e-08 1.020000000000e+02
    5.112060000000e+05 4.000000000000e+00
 8 18  7  7  0  0  0.0-1.072799786925e-04-1.250555214938e-12 0.000000000000e+00
    3.400000000000e+01-2.318750000000e+01 4.163030549790e-09 4.690267929857e-01
   -1.110136508942e-06 3.451425000094e-03 9.678304195404e-06 5.153595260620e+03
    5.184000000000e+05 6.146728992462e-08 1.841370429384e+00-5.774199962616e-08
    9.692559740418e-01 1.955937500000e+02-4.041600149555e-01-7.993190091308e-09
    1.371485699313e-10 1.000000000000e+00 2.008000000000e+03 0.000000000000e+00
    2.400000000000e+00 0.000000000000e+00 5.122274160385e-09 3.400000000000e+01
    5.112060000000e+05 4.000000000000e+00
 5 18  7  7  0  0  0.0-4.996079951525e-06 5.684341886081e-13 0.000000000000e+00
    6.300000000000e+01-4.500000000000e+01 5.225217651289e-09 9.717345785885e-01
   -2.069398760796e-06 5.450714961626e-03 6.608664989471e-06 5.153735231400e+03
    5.184000000000e+05 3.911554813385e-08-2.356650316448e+00 3.911554813385e-08
    9.481000764023e-01 2.454375000000e+02 6.274246649500e-01-8.479996083018e-09
   -2.003654888840e-10 1.000000000000e+00 2.008000000000e+03 0.000000000000e+00
    2.400000000000e+00 0.000000000000e+00-1.117587089539e-08 6.300000000000e+01
    5.112060000000e+05 4.000000000000e+00
 3 18  7  7  0  0  0.0 1.014908775687e-04 6.252776074689e-12 0.000000000000e+00
    5.500000000000e+01-4.728125000000e+01 4.819486465242e-09-2.937203709341e+00
   -2.512708306313e-06 1.504042418674e-03 7.208436727524e-06 5.153722248077e+03
    5.184000000000e+05-2.607703208923e-08-2.334265001473e+00-4.656612873077e-08
    9.611965944963e-01 2.386250000000e+02 4.754357522417e-01-8.173554747077e-09
   -1.982225424788e-10 1.000000000000e+00 2.008000000000e+03 0.000000000000e+00
    2.400000000000e+00 0.000000000000e+00 2.328306436539e-09 5.500000000000e+01
    5.112060000000e+05 4.000000000000e+00
